WT 1B                   
1 44316U 19032G   26184.61606794  .00009303  00000+0  34925-3 0  9993
2 44316  44.9718 331.2440 0009675 330.9016  29.1327 15.27513925389597
PROX-1                  
1 44339U 19036A   26183.85363380  .00017400  00000+0  16868-2 0  9990
2 44339  23.9963   9.5714 0005313 218.6502 141.3618 14.91007399375810
NPSAT1                  
1 44340U 19036B   26183.47828868  .00006540  00000+0  92078-3 0  9998
2 44340  23.9982 118.1554 0007341  27.0064 333.0813 14.74718407374759
FORMOSAT 7-3            
1 44343U 19036E   26183.78022014  .00005535  00000+0  31173-3 0  9996
2 44343  23.9994  71.2101 0001027  97.3502 262.7118 15.09911967385601
FORMOSAT 7-1            
1 44349U 19036L   26183.64913852  .00003086  00000+0  23869-3 0  9998
2 44349  23.9985 288.1529 0000886  27.3698 332.6849 14.96573842386971
FORMOSAT 7-4            
1 44350U 19036M   26183.80504750  .00003317  00000+0  25853-3 0  9993
2 44350  23.9999 349.2061 0001319  27.9811 332.0760 14.96567608386411
FORMOSAT 7-2            
1 44351U 19036N   26183.82739779  .00003431  00000+0  26830-3 0  9990
2 44351  23.9995  43.3689 0000743  34.3966 325.6583 14.96565666385938
FORMOSAT 7-6            
1 44353U 19036Q   26183.49364727  .00002684  00000+0  20418-3 0  9997
2 44353  23.9967 226.4357 0000630 283.6953  76.3478 14.96572305384115
FORMOSAT 7-5            
1 44358U 19036V   26183.60426088  .00002007  00000+0  14627-3 0  9998
2 44358  23.9964 164.4362 0000423  59.9486 300.1057 14.96549666384664
METEOR-M2 2             
1 44387U 19038A   26184.61200365 -.00000275  00000+0 -99008-4 0  9996
2 44387  98.9150 172.1403 0001417  23.4090 336.7152 14.24368886363637
GLOBAL-4                
1 44499U 19054E   26183.39604478  .00057474  00000+0  55266-3 0  9993
2 44499  45.0045 148.5536 0003949  92.2858 267.8492 15.65794716382744
ZY-1 02D                
1 44528U 19059A   26184.58985747  .00000230  00000+0  95916-4 0  9999
2 44528  98.6717 246.0895 0003718 341.7075  18.3975 14.35266078356697
TAURUS-1 (JINNIUZUO 1)  
1 44530U 19059C   26184.69076764  .00005648  00000+0  90229-3 0  9993
2 44530  98.6427 350.5441 0007354 256.2431 103.7956 14.72268870361071
ZHUHAI-1 03B            
1 44536U 19060C   26184.66212579  .00040598  00000+0  60350-3 0  9999
2 44536  97.5547 343.3285 0007703 249.8673 110.1752 15.55033416378889
ZHUHAI-1 03D            
1 44538U 19060E   26184.61938645  .00031980  00000+0  55613-3 0  9996
2 44538  97.5401 335.2614 0006886 234.6988 125.3620 15.50719610378624
ZHUHAI-1 03E            
1 44539U 19060F   26184.60379228  .00021819  00000+0  51986-3 0  9991
2 44539  97.5635 335.1274 0004702 329.7278  30.3696 15.41601019378292
GAOFEN-7                
1 44703U 19072A   26184.70836101  .00005168  00000+0  23256-3 0  9994
2 44703  97.2416 245.5513 0017031 344.0893  15.9806 15.21387559370158
JILIN-1 GAOFEN 2A       
1 44777U 19075A   26183.79960876  .00014827  00000+0  37656-3 0  9994
2 44777  97.4966 267.9583 0006397  39.3504 320.8206 15.39732042367284
NINGXIA-1 1             
1 44779U 19076A   26184.64210663 -.00000003  00000+0  82558-4 0  9998
2 44779  45.0054 106.3168 0011555 239.0878 120.8821 14.02040752340161
NINGXIA-1 5             
1 44783U 19076E   26184.65483367 -.00000046  00000+0  54352-4 0  9995
2 44783  45.0052 105.5952 0011169 230.3072 129.6778 14.02088527340088
KL-ALPHA A              
1 44785U 19077A   26184.64873284  .00000100  00000+0  12509-3 0  9995
2 44785  88.9234 220.7646 0013201  65.6357 294.6174 13.56044855327961
CARTOSAT-3              
1 44804U 19081A   26184.68911274  .00004409  00000+0  21190-3 0  9990
2 44804  97.4296 246.2903 0013501  96.4701 263.8071 15.19257851365973
JILIN-1 GAOFEN 2B       
1 44836U 19086A   26183.80695659  .00007941  00000+0  36167-3 0  9993
2 44836  97.4876 255.7011 0012497 263.2099  96.7714 15.20883356362863
TIANQIN 1 (CAS-6)       
1 44879U 19093A   26184.68288898  .00003848  00000+0  35216-3 0  9994
2 44879  97.7806 268.4050 0011217   5.5250 354.6093 14.95514878354515
ETRSS-1                 
1 44880U 19093B   26184.68488863  .00003297  00000+0  29918-3 0  9990
2 44880  97.7824 268.8806 0011368   5.5541 354.5804 14.95956212354522
TIANYAN 01              
1 44881U 19093C   26184.53619795  .00000567  00000+0  69953-4 0  9996
2 44881  97.7529 256.3696 0014534  38.1122 322.1119 14.86543846353848
TIANYAN 02              
1 44882U 19093D   26184.60474175  .00009082  00000+0  63570-3 0  9995
2 44882  97.7945 279.5539 0012744 331.5983  28.4547 15.05426985355085
CBERS 4A                
1 44883U 19093E   26184.70555664  .00001291  00000+0  17176-3 0  9995
2 44883  98.0187 252.1599 0000758 127.7654 232.3627 14.81429616353522
